start=new Date('2023-05-07T00:00:00.000Z').valueOf();
sats=[{"FILE":"3902298","MEAN_MOTION_DDOT":"0.0000000000000","REF_FRAME":"TEME","REV_AT_EPOCH":"3777","TLE_LINE1":"1 53712U 22107N   23126.54877237  .00000912  00000-0  75404-4 0  9993","TIME_SYSTEM":"UTC","CENTER_NAME":"EARTH","TLE_LINE2":"2 53712  53.2159 229.2682 0001420  72.5834 287.5313 15.08844190 37775","PERIAPSIS":"538.750","ARG_OF_PERICENTER":"72.5834","GP_ID":"231352515","COUNTRY_CODE":"US","ELEMENT_SET_NO":"999","MEAN_MOTION_DOT":"0.00000912","NORAD_CAT_ID":"53712","ECCENTRICITY":"0.00014200","INCLINATION":"53.2159","MEAN_ELEMENT_THEORY":"SGP4","MEAN_MOTION":"15.08844190","OBJECT_NAME":"STARLINK-4683","EPOCH":"2023-05-06T13:10:13.932768","CLASSIFICATION_TYPE":"U","EPHEMERIS_TYPE":"0","OBJECT_TYPE":"PAYLOAD","PERIOD":"95.437","SITE":"AFETR","DECAY_DATE":null,"RA_OF_ASC_NODE":"229.2682","RCS_SIZE":"LARGE","APOAPSIS":"540.715","SEMIMAJOR_AXIS":"6917.868","LAUNCH_DATE":"2022-09-05","BSTAR":"0.00007540400000","MEAN_ANOMALY":"287.5313","OBJECT_ID":"2022-107N"},{"DECAY_DATE":null,"RA_OF_ASC_NODE":"234.1628","RCS_SIZE":"LARGE","APOAPSIS":"540.514","MEAN_ANOMALY":"268.7109","OBJECT_ID":"2022-107P","SEMIMAJOR_AXIS":"6917.888","LAUNCH_DATE":"2022-09-05","BSTAR":"0.00004354900000","CLASSIFICATION_TYPE":"U","EPHEMERIS_TYPE":"0","OBJECT_TYPE":"PAYLOAD","MEAN_ELEMENT_THEORY":"SGP4","OBJECT_NAME":"STARLINK-4698","MEAN_MOTION":"15.08837382","EPOCH":"2023-05-06T12:54:55.295136","SITE":"AFETR","PERIOD":"95.438","ELEMENT_SET_NO":"999","GP_ID":"231353266","COUNTRY_CODE":"US","MEAN_MOTION_DOT":"0.00000405","NORAD_CAT_ID":"53713","ECCENTRICITY":"0.00011000","INCLINATION":"53.2149","REF_FRAME":"TEME","REV_AT_EPOCH":"3768","TLE_LINE1":"1 53713U 22107P   23126.53813999  .00000405  00000-0  43549-4 0  9990","TIME_SYSTEM":"UTC","FILE":"3902298","MEAN_MOTION_DDOT":"0.0000000000000","ARG_OF_PERICENTER":"91.4009","PERIAPSIS":"538.992","CENTER_NAME":"EARTH","TLE_LINE2":"2 53713  53.2149 234.1628 0001100  91.4009 268.7109 15.08837382 37688"},{"BSTAR":"0.00109200000000","SEMIMAJOR_AXIS":"6917.825","LAUNCH_DATE":"2022-09-05","OBJECT_ID":"2022-107Q","MEAN_ANOMALY":"258.4841","RCS_SIZE":"LARGE","RA_OF_ASC_NODE":"209.2897","APOAPSIS":"540.347","DECAY_DATE":null,"SITE":"AFETR","PERIOD":"95.436","MEAN_MOTION":"15.08858102","MEAN_ELEMENT_THEORY":"SGP4","OBJECT_NAME":"STARLINK-4688","EPOCH":"2023-05-06T13:11:30.064128","EPHEMERIS_TYPE":"0","OBJECT_TYPE":"PAYLOAD","CLASSIFICATION_TYPE":"U","ECCENTRICITY":"0.00009500","NORAD_CAT_ID":"53714","INCLINATION":"53.2139","MEAN_MOTION_DOT":"0.00017143","COUNTRY_CODE":"US","GP_ID":"231353509","ELEMENT_SET_NO":"999","TLE_LINE2":"2 53714  53.2139 209.2897 0000950 101.6257 258.4841 15.08858102 38032","CENTER_NAME":"EARTH","PERIAPSIS":"539.033","ARG_OF_PERICENTER":"101.6257","MEAN_MOTION_DDOT":"0.0000000000000","FILE":"3902298","TLE_LINE1":"1 53714U 22107Q   23126.54965352  .00017143  00000-0  10920-2 0  9995","TIME_SYSTEM":"UTC","REF_FRAME":"TEME","REV_AT_EPOCH":"3803"},{"ELEMENT_SET_NO":"999","COUNTRY_CODE":"US","GP_ID":"231351765","INCLINATION":"53.2161","ECCENTRICITY":"0.00008510","NORAD_CAT_ID":"53715","MEAN_MOTION_DOT":"0.00006531","TIME_SYSTEM":"UTC","TLE_LINE1":"1 53715U 22107R   23126.54915528  .00006531  00000-0  42756-3 0  9998","REV_AT_EPOCH":"3769","REF_FRAME":"TEME","MEAN_MOTION_DDOT":"0.0000000000000","FILE":"3902298","PERIAPSIS":"539.024","ARG_OF_PERICENTER":"81.7619","TLE_LINE2":"2 53715  53.2161 234.2311 0000851  81.7619 278.3469 15.08883262 37690","CENTER_NAME":"EARTH","APOAPSIS":"540.202","RA_OF_ASC_NODE":"234.2311","RCS_SIZE":"LARGE","DECAY_DATE":null,"OBJECT_ID":"2022-107R","MEAN_ANOMALY":"278.3469","BSTAR":"0.00042756000000","LAUNCH_DATE":"2022-09-05","SEMIMAJOR_AXIS":"6917.748","OBJECT_TYPE":"PAYLOAD","EPHEMERIS_TYPE":"0","CLASSIFICATION_TYPE":"U","EPOCH":"2023-05-06T13:10:47.016192","MEAN_ELEMENT_THEORY":"SGP4","OBJECT_NAME":"STARLINK-4686","MEAN_MOTION":"15.08883262","PERIOD":"95.435","SITE":"AFETR"},{"CLASSIFICATION_TYPE":"U","EPHEMERIS_TYPE":"0","OBJECT_TYPE":"PAYLOAD","MEAN_MOTION":"15.08857353","MEAN_ELEMENT_THEORY":"SGP4","OBJECT_NAME":"STARLINK-4699","EPOCH":"2023-05-06T13:05:31.391808","PERIOD":"95.436","SITE":"AFETR","DECAY_DATE":null,"RA_OF_ASC_NODE":"234.2079","RCS_SIZE":"LARGE","APOAPSIS":"540.145","MEAN_ANOMALY":"269.1426","OBJECT_ID":"2022-107S","LAUNCH_DATE":"2022-09-05","SEMIMAJOR_AXIS":"6917.827","BSTAR":"0.00051774000000","REF_FRAME":"TEME","REV_AT_EPOCH":"3768","TLE_LINE1":"1 53716U 22107S   23126.54550222  .00007966  00000-0  51774-3 0  9998","TIME_SYSTEM":"UTC","FILE":"3902298","MEAN_MOTION_DDOT":"0.0000000000000","ARG_OF_PERICENTER":"90.9641","PERIAPSIS":"539.239","TLE_LINE2":"2 53716  53.2148 234.2079 0000655  90.9641 269.1426 15.08857353 37688","CENTER_NAME":"EARTH","ELEMENT_SET_NO":"999","GP_ID":"231352015","COUNTRY_CODE":"US","MEAN_MOTION_DOT":"0.00007966","ECCENTRICITY":"0.00006550","NORAD_CAT_ID":"53716","INCLINATION":"53.2148"},{"CLASSIFICATION_TYPE":"U","EPHEMERIS_TYPE":"0","OBJECT_TYPE":"PAYLOAD","MEAN_ELEMENT_THEORY":"SGP4","OBJECT_NAME":"STARLINK-4695","MEAN_MOTION":"15.08861476","EPOCH":"2023-05-06T13:00:13.101984","PERIOD":"95.436","SITE":"AFETR","DECAY_DATE":null,"RA_OF_ASC_NODE":"234.1852","RCS_SIZE":"LARGE","APOAPSIS":"540.309","MEAN_ANOMALY":"242.1349","OBJECT_ID":"2022-107U","LAUNCH_DATE":"2022-09-05","SEMIMAJOR_AXIS":"6917.815","BSTAR":"0.00127970000000","REF_FRAME":"TEME","REV_AT_EPOCH":"3768","TLE_LINE1":"1 53718U 22107U   23126.54181831  .00020149  00000-0  12797-2 0  9995","TIME_SYSTEM":"UTC","FILE":"3902298","MEAN_MOTION_DDOT":"0.0000000000000","ARG_OF_PERICENTER":"117.9735","PERIAPSIS":"539.051","CENTER_NAME":"EARTH","TLE_LINE2":"2 53718  53.2150 234.1852 0000909 117.9735 242.1349 15.08861476 37683","ELEMENT_SET_NO":"999","GP_ID":"231352766","COUNTRY_CODE":"US","MEAN_MOTION_DOT":"0.00020149","NORAD_CAT_ID":"53718","ECCENTRICITY":"0.00009090","INCLINATION":"53.2150"},{"COUNTRY_CODE":"US","GP_ID":"231353009","ELEMENT_SET_NO":"999","ECCENTRICITY":"0.00015810","NORAD_CAT_ID":"53719","INCLINATION":"53.2162","MEAN_MOTION_DOT":"0.00000878","MEAN_MOTION_DDOT":"0.0000000000000","FILE":"3902298","TLE_LINE1":"1 53719U 22107V   23125.95675874  .00000878  00000-0  73245-4 0  9999","TIME_SYSTEM":"UTC","REF_FRAME":"TEME","REV_AT_EPOCH":"3802","TLE_LINE2":"2 53719  53.2162 206.9552 0001581 102.8837 257.2332 15.08839905 38024","CENTER_NAME":"EARTH","PERIAPSIS":"538.652","ARG_OF_PERICENTER":"102.8837","RA_OF_ASC_NODE":"206.9552","RCS_SIZE":"LARGE","APOAPSIS":"540.839","DECAY_DATE":null,"BSTAR":"0.00007324500000","SEMIMAJOR_AXIS":"6917.881","LAUNCH_DATE":"2022-09-05","OBJECT_ID":"2022-107V","MEAN_ANOMALY":"257.2332","MEAN_MOTION":"15.08839905","MEAN_ELEMENT_THEORY":"SGP4","OBJECT_NAME":"STARLINK-4644","EPOCH":"2023-05-05T22:57:43.955136","EPHEMERIS_TYPE":"0","OBJECT_TYPE":"PAYLOAD","CLASSIFICATION_TYPE":"U","SITE":"AFETR","PERIOD":"95.438"},{"LAUNCH_DATE":"2022-09-05","SEMIMAJOR_AXIS":"6917.881","BSTAR":"0.00004295000000","MEAN_ANOMALY":"285.2356","OBJECT_ID":"2022-107W","DECAY_DATE":null,"APOAPSIS":"540.552","RCS_SIZE":"LARGE","RA_OF_ASC_NODE":"234.2561","PERIOD":"95.438","SITE":"AFETR","EPOCH":"2023-05-06T13:16:08.434560","MEAN_MOTION":"15.08839850","OBJECT_NAME":"STARLINK-4642","MEAN_ELEMENT_THEORY":"SGP4","CLASSIFICATION_TYPE":"U","OBJECT_TYPE":"PAYLOAD","EPHEMERIS_TYPE":"0","MEAN_MOTION_DOT":"0.00000396","INCLINATION":"53.2158","ECCENTRICITY":"0.00011650","NORAD_CAT_ID":"53720","GP_ID":"231352266","COUNTRY_CODE":"US","ELEMENT_SET_NO":"999","TLE_LINE2":"2 53720  53.2158 234.2561 0001165  74.8765 285.2356 15.08839850 37699","CENTER_NAME":"EARTH","PERIAPSIS":"538.940","ARG_OF_PERICENTER":"74.8765","FILE":"3902298","MEAN_MOTION_DDOT":"0.0000000000000","REV_AT_EPOCH":"3769","REF_FRAME":"TEME","TIME_SYSTEM":"UTC","TLE_LINE1":"1 53720U 22107W   23126.55287540  .00000396  00000-0  42950-4 0  9991"},{"FILE":"3902298","MEAN_MOTION_DDOT":"0.0000000000000","REF_FRAME":"TEME","REV_AT_EPOCH":"3768","TLE_LINE1":"1 53721U 22107X   23126.49400107  .00002536  00000-0  17734-3 0  9990","TIME_SYSTEM":"UTC","CENTER_NAME":"EARTH","TLE_LINE2":"2 53721  53.2174 234.6013 0000811  75.0402 285.0680 15.08848950 37680","ARG_OF_PERICENTER":"75.0402","PERIAPSIS":"539.157","GP_ID":"231352516","COUNTRY_CODE":"US","ELEMENT_SET_NO":"999","MEAN_MOTION_DOT":"0.00002536","NORAD_CAT_ID":"53721","ECCENTRICITY":"0.00008110","INCLINATION":"53.2174","OBJECT_NAME":"STARLINK-4707","MEAN_ELEMENT_THEORY":"SGP4","MEAN_MOTION":"15.08848950","EPOCH":"2023-05-06T11:51:21.692448","CLASSIFICATION_TYPE":"U","EPHEMERIS_TYPE":"0","OBJECT_TYPE":"PAYLOAD","SITE":"AFETR","PERIOD":"95.437","DECAY_DATE":null,"RCS_SIZE":"LARGE","RA_OF_ASC_NODE":"234.6013","APOAPSIS":"540.279","LAUNCH_DATE":"2022-09-05","SEMIMAJOR_AXIS":"6917.853","BSTAR":"0.00017734000000","MEAN_ANOMALY":"285.0680","OBJECT_ID":"2022-107X"},{"SITE":"AFETR","PERIOD":"95.437","CLASSIFICATION_TYPE":"U","EPHEMERIS_TYPE":"0","OBJECT_TYPE":"PAYLOAD","MEAN_ELEMENT_THEORY":"SGP4","OBJECT_NAME":"STARLINK-4700","MEAN_MOTION":"15.08850289","EPOCH":"2023-05-06T13:37:21.985248","MEAN_ANOMALY":"285.2155","OBJECT_ID":"2022-107Y","LAUNCH_DATE":"2022-09-05","SEMIMAJOR_AXIS":"6917.849","BSTAR":"0.00038563000000","DECAY_DATE":null,"RA_OF_ASC_NODE":"234.3448","RCS_SIZE":"LARGE","APOAPSIS":"540.788","ARG_OF_PERICENTER":"74.9009","PERIAPSIS":"538.640","CENTER_NAME":"EARTH","TLE_LINE2":"2 53722  53.2150 234.3448 0001553  74.9009 285.2155 15.08850289 37686","REF_FRAME":"TEME","REV_AT_EPOCH":"3768","TLE_LINE1":"1 53722U 22107Y   23126.56761557  .00005856  00000-0  38563-3 0  9999","TIME_SYSTEM":"UTC","FILE":"3902298","MEAN_MOTION_DDOT":"0.0000000000000","MEAN_MOTION_DOT":"0.00005856","ECCENTRICITY":"0.00015530","NORAD_CAT_ID":"53722","INCLINATION":"53.2150","ELEMENT_SET_NO":"999","GP_ID":"231353267","COUNTRY_CODE":"US"}];
